[{"OBJECT_NAME":"STARLINK-5296","OBJECT_ID":"2023-010AV","EPOCH":"2025-11-14T06:13:54.026976","MEAN_MOTION":14.98323611,"ECCENTRICITY":0.00025874,"INCLINATION":69.9996,"RA_OF_ASC_NODE":295.3164,"ARG_OF_PERICENTER":255.0014,"MEAN_ANOMALY":105.0859,"EPHEMERIS_TYPE":0,"CLASSIFICATION_TYPE":"U","NORAD_CAT_ID":55312,"ELEMENT_SET_NO":999,"REV_AT_EPOCH":15735,"BSTAR":-7.7122792e-5,"MEAN_MOTION_DOT":-1.013e-5,"MEAN_MOTION_DDOT":0},{"OBJECT_NAME":"STARLINK-5313","OBJECT_ID":"2023-010AW","EPOCH":"2025-11-14T06:37:57.203328","MEAN_MOTION":14.98331965,"ECCENTRICITY":0.00029822,"INCLINATION":69.9979,"RA_OF_ASC_NODE":295.4838,"ARG_OF_PERICENTER":273.1409,"MEAN_ANOMALY":86.9409,"EPHEMERIS_TYPE":0,"CLASSIFICATION_TYPE":"U","NORAD_CAT_ID":55313,"ELEMENT_SET_NO":999,"REV_AT_EPOCH":15735,"BSTAR":-0.00019800752,"MEAN_MOTION_DOT":-2.455e-5,"MEAN_MOTION_DDOT":0},{"OBJECT_NAME":"STARLINK-5305","OBJECT_ID":"2023-010AX","EPOCH":"2025-11-14T06:43:58.960128","MEAN_MOTION":14.98311705,"ECCENTRICITY":0.00029341,"INCLINATION":69.9985,"RA_OF_ASC_NODE":295.4977,"ARG_OF_PERICENTER":267.7346,"MEAN_ANOMALY":92.3478,"EPHEMERIS_TYPE":0,"CLASSIFICATION_TYPE":"U","NORAD_CAT_ID":55314,"ELEMENT_SET_NO":999,"REV_AT_EPOCH":15735,"BSTAR":0.0004369731,"MEAN_MOTION_DOT":5.122e-5,"MEAN_MOTION_DDOT":0},{"OBJECT_NAME":"STARLINK-4623","OBJECT_ID":"2023-010AY","EPOCH":"2025-11-14T07:02:19.163904","MEAN_MOTION":14.98324149,"ECCENTRICITY":0.00029238,"INCLINATION":69.9988,"RA_OF_ASC_NODE":315.4209,"ARG_OF_PERICENTER":269.6278,"MEAN_ANOMALY":90.4546,"EPHEMERIS_TYPE":0,"CLASSIFICATION_TYPE":"U","NORAD_CAT_ID":55315,"ELEMENT_SET_NO":999,"REV_AT_EPOCH":15597,"BSTAR":-6.3003483e-5,"MEAN_MOTION_DOT":-8.45e-6,"MEAN_MOTION_DDOT":0},{"OBJECT_NAME":"STARLINK-5257","OBJECT_ID":"2023-010AZ","EPOCH":"2025-11-14T04:25:44.858208","MEAN_MOTION":14.98329585,"ECCENTRICITY":0.00029594,"INCLINATION":70.0002,"RA_OF_ASC_NODE":295.5815,"ARG_OF_PERICENTER":268.8682,"MEAN_ANOMALY":91.2138,"EPHEMERIS_TYPE":0,"CLASSIFICATION_TYPE":"U","NORAD_CAT_ID":55316,"ELEMENT_SET_NO":999,"REV_AT_EPOCH":15734,"BSTAR":-0.00042431046,"MEAN_MOTION_DOT":-5.152e-5,"MEAN_MOTION_DDOT":0},{"OBJECT_NAME":"STARLINK-5265","OBJECT_ID":"2023-010BA","EPOCH":"2025-11-14T06:31:57.120096","MEAN_MOTION":14.98316999,"ECCENTRICITY":0.00031046,"INCLINATION":69.9979,"RA_OF_ASC_NODE":295.4958,"ARG_OF_PERICENTER":270.8539,"MEAN_ANOMALY":89.2264,"EPHEMERIS_TYPE":0,"CLASSIFICATION_TYPE":"U","NORAD_CAT_ID":55317,"ELEMENT_SET_NO":999,"REV_AT_EPOCH":15735,"BSTAR":-0.00018635956,"MEAN_MOTION_DOT":-2.315e-5,"MEAN_MOTION_DDOT":0},{"OBJECT_NAME":"STARLINK-5180","OBJECT_ID":"2023-010BB","EPOCH":"2025-11-14T06:25:56.794944","MEAN_MOTION":14.98309183,"ECCENTRICITY":0.00029369,"INCLINATION":69.9983,"RA_OF_ASC_NODE":295.4537,"ARG_OF_PERICENTER":272.4555,"MEAN_ANOMALY":87.6267,"EPHEMERIS_TYPE":0,"CLASSIFICATION_TYPE":"U","NORAD_CAT_ID":55318,"ELEMENT_SET_NO":999,"REV_AT_EPOCH":15735,"BSTAR":0.00042325471,"MEAN_MOTION_DOT":4.958e-5,"MEAN_MOTION_DDOT":0},{"OBJECT_NAME":"STARLINK-5196","OBJECT_ID":"2023-010BC","EPOCH":"2025-11-14T06:19:55.863264","MEAN_MOTION":14.98316448,"ECCENTRICITY":0.00028086,"INCLINATION":69.9995,"RA_OF_ASC_NODE":295.4432,"ARG_OF_PERICENTER":259.4285,"MEAN_ANOMALY":100.6557,"EPHEMERIS_TYPE":0,"CLASSIFICATION_TYPE":"U","NORAD_CAT_ID":55319,"ELEMENT_SET_NO":999,"REV_AT_EPOCH":15735,"BSTAR":-7.8421769e-5,"MEAN_MOTION_DOT":-1.028e-5,"MEAN_MOTION_DDOT":0},{"OBJECT_NAME":"STARLINK-5492","OBJECT_ID":"2023-013A","EPOCH":"2025-11-13T17:53:20.186592","MEAN_MOTION":15.02508797,"ECCENTRICITY":7.563e-5,"INCLINATION":43.0035,"RA_OF_ASC_NODE":210.7514,"ARG_OF_PERICENTER":291.6718,"MEAN_ANOMALY":68.4044,"EPHEMERIS_TYPE":0,"CLASSIFICATION_TYPE":"U","NORAD_CAT_ID":55331,"ELEMENT_SET_NO":999,"REV_AT_EPOCH":15534,"BSTAR":-0.00010138728,"MEAN_MOTION_DOT":-1.572e-5,"MEAN_MOTION_DDOT":0},{"OBJECT_NAME":"STARLINK-5491","OBJECT_ID":"2023-013B","EPOCH":"2025-11-13T17:26:30.918336","MEAN_MOTION":15.02530844,"ECCENTRICITY":0.00012075,"INCLINATION":43.0044,"RA_OF_ASC_NODE":197.5919,"ARG_OF_PERICENTER":266.5489,"MEAN_ANOMALY":93.5216,"EPHEMERIS_TYPE":0,"CLASSIFICATION_TYPE":"U","NORAD_CAT_ID":55332,"ELEMENT_SET_NO":999,"REV_AT_EPOCH":15441,"BSTAR":6.4567419e-5,"MEAN_MOTION_DOT":6.69e-6,"MEAN_MOTION_DDOT":0},{"OBJECT_NAME":"STARLINK-5493","OBJECT_ID":"2023-013C","EPOCH":"2025-11-13T17:45:19.927872","MEAN_MOTION":15.02511118,"ECCENTRICITY":6.774e-5,"INCLINATION":42.9997,"RA_OF_ASC_NODE":210.7079,"ARG_OF_PERICENTER":340.0159,"MEAN_ANOMALY":20.0657,"EPHEMERIS_TYPE":0,"CLASSIFICATION_TYPE":"U","NORAD_CAT_ID":55333,"ELEMENT_SET_NO":999,"REV_AT_EPOCH":15426,"BSTAR":-0.00037267287,"MEAN_MOTION_DOT":-5.23e-5,"MEAN_MOTION_DDOT":0},{"OBJECT_NAME":"STARLINK-5652","OBJECT_ID":"2023-013D","EPOCH":"2025-11-13T17:48:30.876192","MEAN_MOTION":15.02514209,"ECCENTRICITY":8.667e-5,"INCLINATION":43.0035,"RA_OF_ASC_NODE":210.6259,"ARG_OF_PERICENTER":293.2796,"MEAN_ANOMALY":66.7955,"EPHEMERIS_TYPE":0,"CLASSIFICATION_TYPE":"U","NORAD_CAT_ID":55334,"ELEMENT_SET_NO":999,"REV_AT_EPOCH":15426,"BSTAR":-8.4048043e-5,"MEAN_MOTION_DOT":-1.338e-5,"MEAN_MOTION_DDOT":0},{"OBJECT_NAME":"STARLINK-5660","OBJECT_ID":"2023-013E","EPOCH":"2025-11-13T17:40:32.879424","MEAN_MOTION":15.02511581,"ECCENTRICITY":6.719e-5,"INCLINATION":43.002,"RA_OF_ASC_NODE":210.6847,"ARG_OF_PERICENTER":272.1582,"MEAN_ANOMALY":87.9184,"EPHEMERIS_TYPE":0,"CLASSIFICATION_TYPE":"U","NORAD_CAT_ID":55335,"ELEMENT_SET_NO":999,"REV_AT_EPOCH":15426,"BSTAR":-0.00014653375,"MEAN_MOTION_DOT":-2.181e-5,"MEAN_MOTION_DDOT":0},{"OBJECT_NAME":"STARLINK-5655","OBJECT_ID":"2023-013F","EPOCH":"2025-11-14T00:03:45.894528","MEAN_MOTION":15.02547603,"ECCENTRICITY":0.0001312,"INCLINATION":43.002,"RA_OF_ASC_NODE":196.1377,"ARG_OF_PERICENTER":268.7534,"MEAN_ANOMALY":91.3158,"EPHEMERIS_TYPE":0,"CLASSIFICATION_TYPE":"U","NORAD_CAT_ID":55336,"ELEMENT_SET_NO":999,"REV_AT_EPOCH":15445,"BSTAR":7.818501e-5,"MEAN_MOTION_DOT":8.53e-6,"MEAN_MOTION_DDOT":0},{"OBJECT_NAME":"STARLINK-5667","OBJECT_ID":"2023-013G","EPOCH":"2025-11-13T01:14:50.397216","MEAN_MOTION":15.02545488,"ECCENTRICITY":0.00014468,"INCLINATION":43.003,"RA_OF_ASC_NODE":201.0936,"ARG_OF_PERICENTER":267.7336,"MEAN_ANOMALY":92.3341,"EPHEMERIS_TYPE":0,"CLASSIFICATION_TYPE":"U","NORAD_CAT_ID":55337,"ELEMENT_SET_NO":999,"REV_AT_EPOCH":15431,"BSTAR":4.270599e-6,"MEAN_MOTION_DOT":-1.46e-6,"MEAN_MOTION_DDOT":0},{"OBJECT_NAME":"STARLINK-5658","OBJECT_ID":"2023-013H","EPOCH":"2025-11-14T03:11:41.686368","MEAN_MOTION":15.02534291,"ECCENTRICITY":0.00012181,"INCLINATION":43.0045,"RA_OF_ASC_NODE":208.4969,"ARG_OF_PERICENTER":278.9692,"MEAN_ANOMALY":81.1013,"EPHEMERIS_TYPE":0,"CLASSIFICATION_TYPE":"U","NORAD_CAT_ID":55338,"ELEMENT_SET_NO":999,"REV_AT_EPOCH":15432,"BSTAR":-0.00018385511,"MEAN_MOTION_DOT":-2.686e-5,"MEAN_MOTION_DDOT":0}]
