STARLINK-5296           
1 55312U 23010AV  25318.25965309 -.00001013  00000+0 -77123-4 0  9990
2 55312  69.9996 295.3164 0002587 255.0014 105.0859 14.98323611157352
STARLINK-5313           
1 55313U 23010AW  25318.27635652 -.00002455  00000+0 -19801-3 0  9997
2 55313  69.9979 295.4838 0002982 273.1409  86.9409 14.98331965157350
STARLINK-5305           
1 55314U 23010AX  25318.28054352  .00005122  00000+0  43697-3 0  9993
2 55314  69.9985 295.4977 0002934 267.7346  92.3478 14.98311705157355
STARLINK-4623           
1 55315U 23010AY  25318.29327736 -.00000845  00000+0 -63003-4 0  9997
2 55315  69.9988 315.4209 0002923 269.6278  90.4546 14.98324149155970
STARLINK-5257           
1 55316U 23010AZ  25318.18454697 -.00005152  00000+0 -42431-3 0  9990
2 55316  70.0002 295.5815 0002959 268.8682  91.2138 14.98329585157349
STARLINK-5265           
1 55317U 23010BA  25318.27218889 -.00002315  00000+0 -18636-3 0  9990
2 55317  69.9979 295.4958 0003104 270.8539  89.2264 14.98316999157357
STARLINK-5180           
1 55318U 23010BB  25318.26801846  .00004958  00000+0  42325-3 0  9996
2 55318  69.9983 295.4537 0002936 272.4555  87.6267 14.98309183157356
STARLINK-5196           
1 55319U 23010BC  25318.26384101 -.00001028  00000+0 -78422-4 0  9992
2 55319  69.9995 295.4432 0002808 259.4285 100.6557 14.98316448157357
STARLINK-5492           
1 55331U 23013A   25317.74537253 -.00001572  00000+0 -10139-3 0  9993
2 55331  43.0035 210.7514 0000756 291.6718  68.4044 15.02508797155344
STARLINK-5491           
1 55332U 23013B   25317.72674674  .00000669  00000+0  64567-4 0  9990
2 55332  43.0044 197.5919 0001207 266.5489  93.5216 15.02530844154419
STARLINK-5493           
1 55333U 23013C   25317.73981398 -.00005230  00000+0 -37267-3 0  9993
2 55333  42.9997 210.7079 0000677 340.0159  20.0657 15.02511118154262
STARLINK-5652           
1 55334U 23013D   25317.74202403 -.00001338  00000+0 -84048-4 0  9993
2 55334  43.0035 210.6259 0000866 293.2796  66.7955 15.02514209154265
STARLINK-5660           
1 55335U 23013E   25317.73649166 -.00002181  00000+0 -14653-3 0  9995
2 55335  43.0020 210.6847 0000671 272.1582  87.9184 15.02511581154265
STARLINK-5655           
1 55336U 23013F   25318.00261452  .00000853  00000+0  78185-4 0  9998
2 55336  43.0020 196.1377 0001312 268.7534  91.3158 15.02547603154458
STARLINK-5667           
1 55337U 23013G   25317.05197219 -.00000146  00000+0  42706-5 0  9999
2 55337  43.0030 201.0936 0001446 267.7336  92.3341 15.02545488154313
STARLINK-5658           
1 55338U 23013H   25318.13312137 -.00002686  00000+0 -18386-3 0  9995
2 55338  43.0045 208.4969 0001218 278.9692  81.1013 15.02534291154326
